#cP2011  8 31  0  0  0.00000000      96 d     IGS08 FIT AIUB
## 1651 259200.00000000   900.00000000 55804 0.0000000000000
+   55   G01G02G03G04G05G06G07G08G09G10G11G12G13G14G15G16G17
+        G18G19G20G21G22G23G24G25G26G27G28G29G30G31G32R01R02
+        R03R04R05R06R07R08R09R10R11R12R13R15R16R17R18R19R20
+        R21R22R23R24  0  0  0  0  0  0  0  0  0  0  0  0  0
+          0  0  0  0  0  0  0  0  0  0  0  0  0  0  0  0  0
++        10 10  5  5  5  5  5  5  5  5  5  5  5  5  5  5  5
++         5  5  5  5  5  5  5  5  5 10  5  5  5  5  5  5  5
++         5 10  5  5  5  5  5  5  5  5  5  5  5  6  6  5  7
++         5  5  6  5  0  0  0  0  0  0  0  0  0  0  0  0  0
++         0  0  0  0  0  0  0  0  0  0  0  0  0  0  0  0  0
%c M  cc GPS ccc cccc cccc cccc cccc ccccc ccccc ccccc ccccc
%c cc cc ccc ccc cccc cccc cccc cccc ccccc ccccc ccccc ccccc
%f  1.2500000  1.025000000  0.00000000000  0.000000000000000
%f  0.0000000  0.000000000  0.00000000000  0.000000000000000
%i    0    0    0    0      0      0      0      0         0
%i    0    0    0    0      0      0      0      0         0
/* Center for Orbit Determination in Europe (CODE)          
/* Rapid GNSS orbits and GPS clocks for year-day 11243      
/* Note: Last day of a 3-day arc GPS/GLONASS solution       
/* PCV:IGS08      OL/AL:FES2004  NONE     YN ORB:CoN CLK:CoN
*  2011  8 31 15 30  0.00000000
PG01   3691.288207 -17372.631368 -19757.966937 999999.999999
PG02 -21438.808482  14630.575103   4268.235817    353.774307
PG03  11478.148533 -16461.667356  16806.123125    762.099895
PG04 -24545.849856   3998.516006 -10013.575052    217.606809
PG05 -14161.156016   8403.296365  20850.586603   -211.722118
PG06  14281.789351 -11467.799622  19292.960338    -82.278942
PG07 -11994.821138 -10295.414467  21389.063519     24.552926
PG08 -19831.321368  -4354.489518  17467.479929      9.040261
PG09  -7595.209193  17907.077235 -18648.643220    102.669889
PG10 -23470.577710  -7255.532820  10347.078639    -11.656957
PG11   7119.931933 -21438.085220 -14047.758098   -181.780141
PG12   4758.117820  18505.822971 -18513.351183     19.389544
PG13  -4675.494405 -23034.937818  12150.935813    253.766237
PG14  14059.581969   5042.136573 -21804.845840    169.892377
PG15  -4724.988030  25550.620243   5049.297603   -108.274438
PG16  13040.229085  -8553.643408  21555.553835   -195.027784
PG17 -14716.220929  -4212.130169 -21577.286080    177.070074
PG18  19887.942864  17465.689883   4281.061734    155.024576
PG19   8676.311869 -23821.205374   7239.393405   -178.866381
PG20  -6680.978901 -19134.281499 -17340.558218     52.370023
PG21  15804.743313   8850.583975  20031.846042   -168.349133
PG22  23649.410197   8835.209127  -8252.100456    144.891227
PG23   -367.408820 -26150.328005   3339.272688    279.717295
PG24   5545.825058 -17360.688965 -19164.111359    420.015732
PG25  15529.587811  18784.267876 -10615.019765     16.559135
PG26 -12009.411790  18392.456952  14045.297962   -141.730075
PG27 -13574.720111  17748.257576 -13421.544100    300.502247
PG28 -22920.078055 -12539.595256  -4952.672607     63.845260
PG29   6127.937661  22891.121879  12109.993280    235.852759
PG30  18247.613909  17098.537599  -9384.021204     90.735076
PG31  24789.692905  -6821.487144  -6895.343438    134.570221
PG32   2193.228733 -16719.969489 -20347.812935   -320.524621
PR01  -1728.869140 -15303.247565 -20328.448045 999999.999999
PR02 -15481.712299 -19322.922300  -6141.943769 999999.999999
PR03 -21592.554055   -150.489635  13631.415162 999999.999999
PR04   9231.329310   7060.464914  22708.889887 999999.999999
PR05   1631.976004  15243.076279  20386.418960 999999.999999
PR06  15086.027381  19405.664607   6880.272657 999999.999999
PR07  20384.508757   9742.522750 -11872.237663 999999.999999
PR08  12769.656410  -2317.137179 -21948.792223 999999.999999
PR09   7846.785766   8836.116761 -22640.544669 999999.999999
PR10  21473.997096    232.684216 -13711.476952 999999.999999
PR11  23729.506904  -8622.318888   3885.141627 999999.999999
PR12  11098.231699 -12270.702592  19312.341226 999999.999999
PR13  -7588.284145  -8656.150928  22744.022972 999999.999999
PR15 -22814.176559   9470.038953  -6167.522714 999999.999999
PR16 -11186.201359  12349.435621 -19392.739644 999999.999999
PR17 -10146.102461  -3886.808032 -23074.676226 999999.999999
PR18 -12067.241541  14730.152066 -17012.203880 999999.999999
PR19  -7172.428028  24442.137147  -1342.465191 999999.999999
PR20   2290.569050  19964.486451  15754.216942 999999.999999
PR21  10118.625297   4114.113483  23041.823731 999999.999999
PR22  12052.025405 -14188.005539  17360.899848 999999.999999
PR23   6887.804734 -24528.494794   1287.192345 999999.999999
PR24  -2185.234272 -20376.728805 -15212.480310 999999.999999
*  2011  8 31 15 45  0.00000000
PG01   5661.024825 -18317.443530 -18391.117167 999999.999999
PG02 -21895.091943  14482.763225   1452.830133    353.775595
PG03  11900.258453 -14383.141130  18339.513491    762.104560
PG04 -23564.529666   3193.030314 -12395.651366    217.617124
PG05 -16103.902520   7106.152087  19912.321565   -211.726724
PG06  14468.930636  -9216.324606  20361.397250    -82.270586
PG07  -9823.586882 -11466.793544  21874.219405     24.554732
PG08 -17961.229444  -5220.769037  19125.762404      9.041090
PG09  -9326.359454  18765.060142 -16885.208543    102.672659
PG10 -24226.553286  -8033.962191   7800.967248    -11.659210
PG11   8444.658804 -22174.591788 -11931.035641   -181.783236
PG12   2864.186400  17400.335916 -19906.452064     19.391879
PG13  -4372.096788 -24271.677420   9614.433213    253.764693
PG14  13805.115991   7522.429549 -21263.429512    169.894351
PG15  -5006.823991  24810.835970   7762.041760   -108.272884
PG16  15018.606948  -7177.349783  20781.719625   -195.029763
PG17 -14530.534728  -6674.803917 -21100.225398    177.068572
PG18  19223.122308  17389.884498   6959.047111    155.025920
PG19   8825.814973 -22805.286008   9879.163169   -178.869897
PG20  -4809.960162 -18277.580774 -18827.037601     52.370391
PG21  13847.316022   9968.370142  20900.958751   -168.351586
PG22  24163.009334   9545.627273  -5619.741124    144.890752
PG23    -83.173974 -26356.722002    467.832213    279.714803
PG24   7545.167596 -18118.369841 -17700.603927    420.018562
PG25  14270.342436  18264.794135 -13020.235455     16.560746
PG26 -11978.992532  16549.819464  16154.821623   -141.741052
PG27 -14967.403973  18343.091179 -11007.810363    300.509053
PG28 -23189.628083 -12961.183639  -2120.460443     63.848003
PG29   5829.624260  24106.757606   9635.177922    235.855586
PG30  17101.791654  16792.002030 -11868.520210     90.732381
PG31  24020.083408  -6222.866121  -9567.797192    134.575329
PG32   4169.273066 -15320.096294 -21078.714432   -320.530673
PR01    139.487256 -13507.790961 -21630.297577 999999.999999
PR02 -14865.727883 -18596.079833  -9159.376289 999999.999999
PR03 -19791.787490   -558.572045  16115.701332 999999.999999
PR04   8679.123150   9757.878790  21912.665490 999999.999999
PR05   -241.816124  13446.786872  21673.438465 999999.999999
PR06  14413.394397  18610.496417   9864.799243 999999.999999
PR07  21432.239069  10495.963480  -9050.816940 999999.999999
PR08  14744.739145   -566.056213 -20796.320479 999999.999999
PR09   5143.641978   9623.904821 -23083.941005 999999.999999
PR10  19667.037033    650.227703 -16195.932152 999999.999999
PR11  23937.865617  -8894.890473    672.657854 999999.999999
PR12  13251.584971 -13016.430723  17357.005109 999999.999999
PR13  -4878.110431  -9502.291029  23143.345279 999999.999999
PR15 -23291.086469   9837.606948  -2982.844787 999999.999999
PR16 -13321.453735  13106.228136 -17454.515879 999999.999999
PR17  -9510.179891  -6641.173735 -22707.778045 999999.999999
PR18 -11480.866761  12582.748656 -19011.890888 999999.999999
PR19  -6932.860237  24125.549955  -4535.755552 999999.999999
PR20   2013.021957  21735.354172  13254.387719 999999.999999
PR21   9517.087895   6870.323250  22629.734272 999999.999999
PR22  11477.000813 -11991.746651  19310.419023 999999.999999
PR23   6659.117559 -24213.414571   4478.043097 999999.999999
PR24  -1938.510112 -22079.166396 -12650.901618 999999.999999
EOF
